NORAD_CAT_ID,OBJECT_NAME,OBJECT_TYPE,EPOCH,MEAN_MOTION,ECCENTRICITY,INCLINATION,RA_OF_ASC_NODE,ARG_OF_PERICENTER,MEAN_ANOMALY,BSTAR,MEAN_MOTION_DOT,MEAN_MOTION_DDOT,TLE_LINE0,TLE_LINE1,TLE_LINE2,SEMIMAJOR_AXIS,PERIOD,APOGEE,PERIGEE,DECAYED
51957.0,STARLINK-3694,PAYLOAD,2022-03-26 22:00:00,15.73234441,0.0001228,53.219,53.886,104.7748,83.3058,-0.00011243,-0.00016391,0.0,0 STARLINK-3694,1 51957U 22025B   22085.91667824 -.00016391  00000-0 -11243-3 0  9994,2 51957  53.2190  53.8860 0001228 104.7748  83.3058 15.73234441  4019,6727.797,91.531,350.48800000000006,348.836,0.0
51957.0,STARLINK-3694,PAYLOAD,2022-03-27 06:00:00,15.73190108,0.0001177,53.2189,52.2386,91.2871,185.7563,-0.00031859,-0.00045073,0.0,0 STARLINK-3694,1 51957U 22025B   22086.25001157 -.00045073  00000-0 -31859-3 0  9997,2 51957  53.2189  52.2386 0001177  91.2871 185.7563 15.73190108  4078,6727.9230000000025,91.534,350.58,348.996,0.0
51957.0,STARLINK-3694,PAYLOAD,2022-03-27 14:00:01,15.73189237,0.000117,53.219,50.5878,99.0087,266.9516,0.0002582,0.00035754,0.0,0 STARLINK-3694,1 51957U 22025B   22086.58334491  .00035754  00000-0  25820-3 0  9997,2 51957  53.2190  50.5878 0001170  99.0087 266.9516 15.73189237  4122,6727.926,91.534,350.57800000000015,349.004,0.0
51957.0,STARLINK-3694,PAYLOAD,2022-03-27 22:00:01,15.73227958,0.000126,53.2194,48.9373,105.8538,349.0933,0.00048654,0.00068301,0.0,0 STARLINK-3694,1 51957U 22025B   22086.91668981  .00068301  00000-0  48654-3 0  9992,2 51957  53.2194  48.9373 0001260 105.8538 349.0933 15.73227958  3111,6727.815,91.532,350.528,348.833,0.0
51957.0,STARLINK-3694,PAYLOAD,2022-03-28 08:00:01,15.73254,0.0001059,53.2194,46.8776,93.419,202.7299,-0.00022418,-0.00032034,0.0,0 STARLINK-3694,1 51957U 22025B   22087.33334491 -.00032034  00000-0 -22418-3 0  9991,2 51957  53.2194  46.8776 0001059  93.4190 202.7299 15.73254000  4240,6727.741,91.53,350.319,348.894,0.0
51957.0,STARLINK-3694,PAYLOAD,2022-03-28 14:00:01,15.73249323,0.0001039,53.2191,45.6388,105.3533,167.6117,-0.00050798,-0.00071456,0.0,0 STARLINK-3694,1 51957U 22025B   22087.58335648 -.00071456  00000-0 -50798-3 0  9996,2 51957  53.2191  45.6388 0001039 105.3533 167.6117 15.73249323  3222,6727.755,91.53,350.319,348.921,0.0
51957.0,STARLINK-3694,PAYLOAD,2022-03-28 22:00:00,15.73224715,9.91e-05,53.2193,43.9889,116.1526,245.6823,2.8529e-05,3.39e-05,0.0,0 STARLINK-3694,1 51957U 22025B   22087.91667824  .00003390  00000-0  28529-4 0  9995,2 51957  53.2193  43.9889 0000991 116.1526 245.6823 15.73224715  3273,6727.825,91.532,350.356,349.023,0.0
51957.0,STARLINK-3694,PAYLOAD,2022-03-29 14:00:01,15.73140477,0.000113,53.2194,40.6903,108.416,71.2887,-5.8861e-05,-8.85e-05,0.0,0 STARLINK-3694,1 51957U 22025B   22088.58334491 -.00008850  00000-0 -58861-4 0  9990,2 51957  53.2194  40.6903 0001130 108.4160  71.2887 15.73140477  4433,6728.065,91.537,350.69,349.17,0.0
51957.0,STARLINK-3694,PAYLOAD,2022-03-29 20:00:01,15.73123358,0.0001302,53.2196,39.4525,114.8287,41.5139,0.00073954,0.00104121,0.0,0 STARLINK-3694,1 51957U 22025B   22088.83334491  .00104121  00000-0  73954-3 0  9993,2 51957  53.2196  39.4525 0001302 114.8287  41.5139 15.73123358  4476,6728.114000000001,91.538,350.855,349.103,0.0
51957.0,STARLINK-3694,PAYLOAD,2022-03-29 22:00:00,15.731555300000002,0.0001291999999999,53.2198,39.0406,114.0069,154.5427,0.00049654,0.00069511,0.0,0 STARLINK-3694,1 51957U 22025B   22088.91667824  .00069511  00000-0  49654-3 0  9994,2 51957  53.2198  39.0406 0001292 114.0069 154.5427 15.73155530  3437,6728.022,91.536,350.756,349.01800000000014,0.0
51957.0,STARLINK-3694,PAYLOAD,2022-03-30 12:00:00,15.73216588,0.0001117,53.2195,36.1551,111.286,222.8724,-0.00042961,-0.00060521,0.0,0 STARLINK-3694,1 51957U 22025B   22089.50001157 -.00060521  00000-0 -42961-3 0  9999,2 51957  53.2195  36.1551 0001117 111.2860 222.8724 15.73216588  4584,6727.848000000001,91.532,350.464,348.961,0.0
51957.0,STARLINK-3694,PAYLOAD,2022-03-30 14:00:01,15.73181951,0.0001122,53.2197,35.7422,117.1197,329.3453,5.2202e-05,6.707e-05,0.0,0 STARLINK-3694,1 51957U 22025B   22089.58335648  .00006707  00000-0  52202-4 0  9996,2 51957  53.2197  35.7422 0001122 117.1197 329.3453 15.73181951  3533,6727.946999999999,91.534,350.56699999999995,349.057,0.0
51957.0,STARLINK-3694,PAYLOAD,2022-03-30 20:00:01,15.73162055,0.0001313,53.2198,34.5047,119.192,303.8705,0.0007166,0.00101002,0.0,0 STARLINK-3694,1 51957U 22025B   22089.83334491  .00101002  00000-0  71660-3 0  9991,2 51957  53.2198  34.5047 0001313 119.1920 303.8705 15.73162055  4635,6728.003000000002,91.535,350.75199999999984,348.985,0.0
51957.0,STARLINK-3694,PAYLOAD,2022-03-30 22:00:00,15.73199135,0.0001281999999999,53.2198,34.093,119.613,55.6673,0.00036018,0.00050229,0.0,0 STARLINK-3694,1 51957U 22025B   22089.91667824  .00050229  00000-0  36018-3 0  9991,2 51957  53.2198  34.0930 0001282 119.6130  55.6673 15.73199135  3593,6727.898,91.533,350.625,348.9,0.0
51957.0,STARLINK-3694,PAYLOAD,2022-03-31 06:00:00,15.7323083,0.0001101,53.2197,32.4455,111.1566,153.0808,-0.00024422,-0.00034797,0.0,0 STARLINK-3694,1 51957U 22025B   22090.25001157 -.00034797  00000-0 -24422-3 0  9991,2 51957  53.2197  32.4455 0001101 111.1566 153.0808 15.73230830  4701,6727.807,91.531,350.413,348.932,0.0
51957.0,STARLINK-3694,PAYLOAD,2022-03-31 14:00:01,15.73170739,0.0001211,53.2191,30.7943,122.5042,230.6942,0.00055606,0.00078049,0.0,0 STARLINK-3694,1 51957U 22025B   22090.58334491  .00078049  00000-0  55606-3 0  9991,2 51957  53.2191  30.7943 0001211 122.5042 230.6942 15.73170739  3694,6727.979,91.535,350.658,349.029,0.0
51957.0,STARLINK-3694,PAYLOAD,2022-03-31 22:00:00,15.73263056,0.0001288,53.2186,29.1448,124.1488,317.9817,0.00049536,0.00069668,0.0,0 STARLINK-3694,1 51957U 22025B   22090.91667824  .00069668  00000-0  49536-3 0  9999,2 51957  53.2186  29.1448 0001288 124.1488 317.9817 15.73263056  4805,6727.715,91.53,350.44699999999995,348.714,0.0
51957.0,STARLINK-3694,PAYLOAD,2022-04-01 14:00:01,15.732676800000002,0.0001216,53.2178,25.8455,124.6698,135.5516,-0.000442,-0.00062372,0.0,0 STARLINK-3694,1 51957U 22025B   22091.58334491 -.00062372  00000-0 -44200-3 0  9994,2 51957  53.2178  25.8455 0001216 124.6698 135.5516 15.73267680  4915,6727.7019999999975,91.529,350.385,348.749,0.0
51957.0,STARLINK-3694,PAYLOAD,2022-04-01 22:00:00,15.73245691,0.0001337,53.2177,24.1964,125.7274,223.4709,-0.00093467,-0.00130041,0.0,0 STARLINK-3694,1 51957U 22025B   22091.91667824 -.00130041  00000-0 -93467-3 0  9998,2 51957  53.2177  24.1964 0001337 125.7274 223.4709 15.73245691  3690,6727.765,91.531,350.529,348.73,0.0
51957.0,STARLINK-3694,PAYLOAD,2022-04-02 06:00:00,15.73109932,0.0001276,53.2173,22.5478,115.4093,322.7295,0.00027261,0.00037663,0.0,0 STARLINK-3694,1 51957U 22025B   22092.25001157  .00037663  00000-0  27261-3 0  9990,2 51957  53.2173  22.5478 0001276 115.4093 322.7295 15.73109932  5013,6728.151999999999,91.538,350.875,349.158,0.0
51957.0,STARLINK-3694,PAYLOAD,2022-04-02 14:00:01,15.73147238,0.0001444,53.2175,20.8973,126.532,40.5356,0.00046121,0.00064459,0.0,0 STARLINK-3694,1 51957U 22025B   22092.58335648  .00064459  00000-0  46121-3 0  9990,2 51957  53.2175  20.8973 0001444 126.5320  40.5356 15.73147238  5068,6728.045999999999,91.536,350.88199999999995,348.939,0.0
51957.0,STARLINK-3694,PAYLOAD,2022-04-02 22:00:01,15.73200074,0.0001321,53.2178,19.2484,132.4076,123.5504,-0.0005029,-0.00070609,0.0,0 STARLINK-3694,1 51957U 22025B   22092.91668981 -.00070609  00000-0 -50290-3 0  9994,2 51957  53.2178  19.2484 0001321 132.4076 123.5504 15.73200074  5120,6727.895,91.533,350.649,348.871,0.0
51957.0,STARLINK-3694,PAYLOAD,2022-04-03 14:00:01,15.73131691,0.000133,53.2175,15.9494,131.3271,302.302,0.00021923,0.00030168,0.0,0 STARLINK-3694,1 51957U 22025B   22093.58334491  .00030168  00000-0  21923-3 0  9999,2 51957  53.2175  15.9494 0001330 131.3271 302.3020 15.73131691  5225,6728.09,91.537,350.85,349.06,0.0
51957.0,STARLINK-3694,PAYLOAD,2022-04-03 22:00:00,15.73131091,0.0001453,53.2175,14.3009,125.6132,36.8491,0.00028177,0.00038992,0.0,0 STARLINK-3694,1 51957U 22025B   22093.91667824  .00038992  00000-0  28177-3 0  9996,2 51957  53.2175  14.3009 0001453 125.6132  36.8491 15.73131091  5278,6728.092,91.537,350.934,348.97900000000016,0.0
51957.0,STARLINK-3694,PAYLOAD,2022-04-04 14:00:01,15.73233026,0.0001325,53.2169,11.0015,139.5303,200.7202,5.311e-05,6.850000000000001e-05,0.0,0 STARLINK-3694,1 51957U 22025B   22094.58334491  .00006850  00000-0  53110-4 0  9995,2 51957  53.2169  11.0015 0001325 139.5303 200.7202 15.73233026  5389,6727.801,91.531,350.557,348.775,0.0
51957.0,STARLINK-3694,PAYLOAD,2022-04-04 22:00:00,15.73246912,0.0001243,53.2172,9.3528,140.4846,288.7348,0.00040998,0.00057428,0.0,0 STARLINK-3694,1 51957U 22025B   22094.91667824  .00057428  00000-0  40998-3 0  9997,2 51957  53.2172   9.3528 0001243 140.4846 288.7348 15.73246912  3703,6727.761,91.53,350.463,348.79,0.0
51957.0,STARLINK-3694,PAYLOAD,2022-04-05 06:00:00,15.73291752,0.0001128,53.217,7.7044,129.0941,29.1131,-0.00030203,-0.00042958,0.0,0 STARLINK-3694,1 51957U 22025B   22095.25001157 -.00042958  00000-0 -30203-3 0  9998,2 51957  53.2170   7.7044 0001128 129.0941  29.1131 15.73291752  5483,6727.634,91.528,350.25699999999995,348.74,0.0
51957.0,STARLINK-3694,PAYLOAD,2022-04-05 14:00:01,15.732284900000002,0.0001357,53.217,6.0527,136.3034,110.9855,-0.0003212,-0.0004551,0.0,0 STARLINK-3694,1 51957U 22025B   22095.58335648 -.00045510  00000-0 -32120-3 0  9996,2 51957  53.2170   6.0527 0001357 136.3034 110.9855 15.73228490  3703,6727.814,91.532,350.592,348.766,0.0
51957.0,STARLINK-3694,PAYLOAD,2022-04-05 16:00:00,15.73220089,0.0001414,53.2168,5.6401,136.6991,222.7655,-0.00035207,-0.00049782,0.0,0 STARLINK-3694,1 51957U 22025B   22095.66667824 -.00049782  00000-0 -35207-3 0  9993,2 51957  53.2168   5.6401 0001414 136.6991 222.7655 15.73220089  5556,6727.8380000000025,91.532,350.654,348.75199999999984,0.0
